OBJECT_NAME,OBJECT_ID,EPOCH,MEAN_MOTION,ECCENTRICITY,INCLINATION,RA_OF_ASC_NODE,ARG_OF_PERICENTER,MEAN_ANOMALY,EPHEMERIS_TYPE,CLASSIFICATION_TYPE,NORAD_CAT_ID,ELEMENT_SET_NO,REV_AT_EPOCH,BSTAR,MEAN_MOTION_DOT,MEAN_MOTION_DDOT
STARLINK-31393,2024-049X,2026-06-11T21:47:05.788896,15.27583369,.00014831,43.0008,316.8825,266.3294,93.7388,0,U,59252,999,12698,.55556348E-4,.1267E-4,0
STARLINK-31425,2024-049Y,2026-06-10T18:28:42.231936,15.27583459,.0001314,43.0025,337.6848,288.3467,71.7242,0,U,59253,999,12663,.31284855E-4,.599E-5,0
STARLINK-31659,2024-050A,2026-06-12T02:23:54.316608,15.34377158,.00013787,53.1605,98.8978,94.1748,265.9412,0,U,59254,999,12620,.78469202E-4,.2274E-4,0
STARLINK-31629,2024-050B,2026-06-12T02:32:57.802848,15.30197731,.00014638,53.1603,102.4795,90.1839,269.9330,0,U,59255,999,12500,.30132231E-4,.533E-5,0
STARLINK-31652,2024-050C,2026-06-12T06:00:02.999808,15.31666697,.00012141,53.1605,101.6414,71.5152,88.3908,0,U,59256,999,597,.19920937E-2,.61902E-3,0
STARLINK-31637,2024-050E,2026-06-12T03:39:40.231872,15.30180122,.00014016,53.1602,102.0557,99.0497,261.0662,0,U,59258,999,12501,-.50801488E-4,-.1862E-4,0
STARLINK-31506,2024-050F,2026-06-12T02:28:24.480768,15.30194011,.00014972,53.1605,102.4584,88.5039,271.6133,0,U,59259,999,12500,.25919385E-4,.408E-5,0
STARLINK-31639,2024-050H,2026-06-12T03:37:39.178560,15.31691550,.00014406,53.1624,102.0486,79.7675,280.3489,0,U,59261,999,12501,-.18783161E-4,-.948E-5,0
STARLINK-31598,2024-050K,2026-06-12T03:06:37.618848,15.33551589,.00012081,53.1617,102.6047,105.1152,254.9984,0,U,59263,999,12500,.17085052E-4,.189E-5,0
STARLINK-31645,2024-050L,2026-06-12T02:43:36.153696,15.30205871,.00013035,53.1579,102.5211,94.0489,266.0661,0,U,59264,999,12500,.46943454E-3,.13572E-3,0
STARLINK-31646,2024-050M,2026-06-12T02:52:43.113216,15.30197876,.00013913,53.1611,102.5634,102.1164,257.9993,0,U,59265,999,12500,.3820437E-4,.772E-5,0
STARLINK-31648,2024-050N,2026-06-12T02:19:17.703552,15.30175319,.00014505,53.1611,102.4180,89.0141,271.1026,0,U,59266,999,12500,-.67660145E-4,-.2361E-4,0
STARLINK-31579,2024-050P,2026-06-12T02:39:02.480832,15.30185527,.00014421,53.1613,102.5058,90.2846,269.8321,0,U,59267,999,12500,-.30965995E-4,-.1276E-4,0
STARLINK-31627,2024-050Q,2026-06-12T03:10:57.302688,15.30207317,.00014425,53.1585,102.6354,98.6484,261.4681,0,U,59268,999,12500,.87272542E-3,.25583E-3,0
STARLINK-31609,2024-050R,2026-06-12T04:22:11.997984,15.30205048,.00014199,53.1599,102.2369,100.6815,259.4346,0,U,59269,999,12501,-.880857E-5,-.62E-5,0
STARLINK-31616,2024-050S,2026-06-12T01:23:13.539840,15.30197142,.00014321,53.1609,102.8837,103.4158,256.7003,0,U,59270,999,12499,.439401E-4,.942E-5,0
STARLINK-31630,2024-050T,2026-06-12T02:11:41.029440,15.34399391,.00016204,53.1608,88.8862,114.4507,245.6665,0,U,59271,999,12519,-.34277841E-4,-.1534E-4,0
STARLINK-31623,2024-050U,2026-06-12T01:42:49.909536,15.30192109,.00016397,53.1606,102.2637,90.3122,269.8067,0,U,59272,999,12500,.9715303E-5,-.72E-6,0
STARLINK-31595,2024-050V,2026-06-12T02:23:51.062784,15.30194342,.00013041,53.1604,102.4513,93.8612,266.2538,0,U,59273,999,12500,.35206103E-4,.683E-5,0
YUNHAI-2 02A,2024-052A,2026-06-12T06:36:42.539040,14.27958711,.00114319,50.0078,103.5189,128.1197,232.0750,0,U,59280,999,9752,.68472687E-4,.1E-6,0
YUNHAI-2 02B,2024-052B,2026-06-12T04:19:31.687104,14.27972547,.00046426,50.0110,43.7070,170.0299,190.0708,0,U,59281,999,11589,.55500092E-4,-.23E-6,0
YUNHAI-2 02C,2024-052C,2026-06-12T07:07:40.763712,14.27961886,.00062296,50.0067,163.1523,147.0465,213.0839,0,U,59282,999,11410,.61486066E-4,-.8E-7,0
YUNHAI-2 02D,2024-052D,2026-06-12T06:32:19.120992,14.27995185,.00048037,50.0079,283.1874,204.2185,155.8505,0,U,59283,999,11769,.59177689E-4,-.13E-6,0
YUNHAI-2 02E,2024-052E,2026-06-12T05:28:46.042752,14.27963147,.00118769,50.0118,343.8022,41.8949,318.2873,0,U,59284,999,10622,.5710977E-4,-.19E-6,0
YUNHAI-2 02F,2024-052F,2026-06-12T06:04:42.225600,14.27988458,.0005284,50.0094,223.8608,165.5416,194.5651,0,U,59285,999,11845,.62867807E-4,-.4E-7,0
MOLA,2024-053B,2026-06-12T03:37:18.365664,15.58938618,.00036028,49.9866,320.4529,277.0247,83.0313,0,U,59289,999,12071,.62016262E-3,.48976E-3,0
AEROCUBE 16A,2024-053C,2026-06-11T19:06:16.628256,15.43675111,.00028894,49.9903,352.1418,297.0109,63.0559,0,U,59290,999,12027,.35550666E-3,.1594E-3,0
AEROCUBE 16B,2024-053D,2026-06-11T19:14:54.478752,15.43652787,.00028654,49.9942,352.3267,292.8785,67.1875,0,U,59291,999,12035,.35395962E-3,.15856E-3,0
STARLINK-31463,2024-056A,2026-06-12T00:00:46.421856,15.27574863,.0003315,43.0022,54.1480,286.9708,73.0780,0,U,59296,999,12562,.15841646E-3,.4099E-4,0
STARLINK-31487,2024-056B,2026-06-11T23:43:37.827264,15.27579192,.00013639,43.0031,58.3741,268.9480,91.1216,0,U,59297,999,12569,.24479925E-4,.412E-5,0
