STARLINK-31393          
1 59252U 24049X   26162.90770589  .00001267  00000+0  55556-4 0  9999
2 59252  43.0008 316.8825 0001483 266.3294  93.7388 15.27583369126984
STARLINK-31425          
1 59253U 24049Y   26161.76993324  .00000599  00000+0  31285-4 0  9997
2 59253  43.0025 337.6848 0001314 288.3467  71.7242 15.27583459126636
STARLINK-31659          
1 59254U 24050A   26163.09993422  .00002274  00000+0  78469-4 0  9994
2 59254  53.1605  98.8978 0001378  94.1748 265.9412 15.34377158126202
STARLINK-31629          
1 59255U 24050B   26163.10622457  .00000533  00000+0  30132-4 0  9995
2 59255  53.1603 102.4795 0001463  90.1839 269.9330 15.30197731125005
STARLINK-31652          
1 59256U 24050C   26163.25003472  .00061902  00000+0  19921-2 0  9990
2 59256  53.1605 101.6414 0001214  71.5152  88.3908 15.31666697  5972
STARLINK-31637          
1 59258U 24050E   26163.15254898 -.00001862  00000+0 -50801-4 0  9996
2 59258  53.1602 102.0557 0001401  99.0497 261.0662 15.30180122125017
STARLINK-31506          
1 59259U 24050F   26163.10306112  .00000408  00000+0  25919-4 0  9994
2 59259  53.1605 102.4584 0001497  88.5039 271.6133 15.30194011125006
STARLINK-31639          
1 59261U 24050H   26163.15114790 -.00000948  00000+0 -18783-4 0  9993
2 59261  53.1624 102.0486 0001440  79.7675 280.3489 15.31691550125016
STARLINK-31598          
1 59263U 24050K   26163.12960207  .00000189  00000+0  17085-4 0  9993
2 59263  53.1617 102.6047 0001208 105.1152 254.9984 15.33551589125000
STARLINK-31645          
1 59264U 24050L   26163.11361289  .00013572  00000+0  46943-3 0  9992
2 59264  53.1579 102.5211 0001303  94.0489 266.0661 15.30205871125008
STARLINK-31646          
1 59265U 24050M   26163.11994344  .00000772  00000+0  38204-4 0  9997
2 59265  53.1611 102.5634 0001391 102.1164 257.9993 15.30197876125005
STARLINK-31648          
1 59266U 24050N   26163.09673268 -.00002361  00000+0 -67660-4 0  9990
2 59266  53.1611 102.4180 0001450  89.0141 271.1026 15.30175319125008
STARLINK-31579          
1 59267U 24050P   26163.11044538 -.00001276  00000+0 -30966-4 0  9999
2 59267  53.1613 102.5058 0001442  90.2846 269.8321 15.30185527125007
STARLINK-31627          
1 59268U 24050Q   26163.13260767  .00025583  00000+0  87273-3 0  9993
2 59268  53.1585 102.6354 0001442  98.6484 261.4681 15.30207317125005
STARLINK-31609          
1 59269U 24050R   26163.18208331 -.00000620  00000+0 -88086-5 0  9990
2 59269  53.1599 102.2369 0001419 100.6815 259.4346 15.30205048125014
STARLINK-31616          
1 59270U 24050S   26163.05779560  .00000942  00000+0  43940-4 0  9999
2 59270  53.1609 102.8837 0001432 103.4158 256.7003 15.30197142124991
STARLINK-31630          
1 59271U 24050T   26163.09144710 -.00001534  00000+0 -34278-4 0  9991
2 59271  53.1608  88.8862 0001620 114.4507 245.6665 15.34399391125199
STARLINK-31623          
1 59272U 24050U   26163.07141099 -.00000072  00000+0  97153-5 0  9994
2 59272  53.1606 102.2637 0001639  90.3122 269.8067 15.30192109125002
STARLINK-31595          
1 59273U 24050V   26163.09989656  .00000683  00000+0  35206-4 0  9993
2 59273  53.1604 102.4513 0001304  93.8612 266.2538 15.30194342125002
YUNHAI-2 02A            
1 59280U 24052A   26163.27549235  .00000010  00000+0  68473-4 0  9994
2 59280  50.0078 103.5189 0011431 128.1197 232.0750 14.27958711 97529
YUNHAI-2 02B            
1 59281U 24052B   26163.18022786 -.00000023  00000+0  55500-4 0  9994
2 59281  50.0110  43.7070 0004642 170.0299 190.0708 14.27972547115896
YUNHAI-2 02C            
1 59282U 24052C   26163.29699958 -.00000008  00000+0  61486-4 0  9991
2 59282  50.0067 163.1523 0006229 147.0465 213.0839 14.27961886114108
YUNHAI-2 02D            
1 59283U 24052D   26163.27244353 -.00000013  00000+0  59178-4 0  9996
2 59283  50.0079 283.1874 0004803 204.2185 155.8505 14.27995185117694
YUNHAI-2 02E            
1 59284U 24052E   26163.22831068 -.00000019  00000+0  57110-4 0  9997
2 59284  50.0118 343.8022 0011876  41.8949 318.2873 14.27963147106222
YUNHAI-2 02F            
1 59285U 24052F   26163.25326650 -.00000004  00000+0  62868-4 0  9997
2 59285  50.0094 223.8608 0005284 165.5416 194.5651 14.27988458118451
MOLA                    
1 59289U 24053B   26163.15090701  .00048976  00000+0  62016-3 0  9999
2 59289  49.9866 320.4529 0003602 277.0247  83.0313 15.58938618120715
AEROCUBE 16A            
1 59290U 24053C   26162.79602579  .00015940  00000+0  35551-3 0  9991
2 59290  49.9903 352.1418 0002889 297.0109  63.0559 15.43675111120274
AEROCUBE 16B            
1 59291U 24053D   26162.80201943  .00015856  00000+0  35396-3 0  9997
2 59291  49.9942 352.3267 0002865 292.8785  67.1875 15.43652787120358
STARLINK-31463          
1 59296U 24056A   26163.00053729  .00004099  00000+0  15842-3 0  9996
2 59296  43.0022  54.1480 0003315 286.9708  73.0780 15.27574863125627
STARLINK-31487          
1 59297U 24056B   26162.98863226  .00000412  00000+0  24480-4 0  9998
2 59297  43.0031  58.3741 0001363 268.9480  91.1216 15.27579192125694
